[{"OBJECT_NAME":"STARLINK-5921","OBJECT_ID":"2023-037N","EPOCH":"2026-03-09T22:23:24.352800","MEAN_MOTION":14.98319781,"ECCENTRICITY":0.0002778,"INCLINATION":69.9978,"RA_OF_ASC_NODE":283.9635,"ARG_OF_PERICENTER":268.4707,"MEAN_ANOMALY":91.6134,"EPHEMERIS_TYPE":0,"CLASSIFICATION_TYPE":"U","NORAD_CAT_ID":55926,"ELEMENT_SET_NO":999,"REV_AT_EPOCH":16401,"BSTAR":-0.00015944198,"MEAN_MOTION_DOT":-1.994e-5,"MEAN_MOTION_DDOT":0},{"OBJECT_NAME":"PEGASUS DEB","OBJECT_ID":"1994-029AEJ","EPOCH":"2026-03-07T20:29:03.447168","MEAN_MOTION":14.33296857,"ECCENTRICITY":0.02963752,"INCLINATION":81.9754,"RA_OF_ASC_NODE":115.503,"ARG_OF_PERICENTER":180.1454,"MEAN_ANOMALY":179.97,"EPHEMERIS_TYPE":0,"CLASSIFICATION_TYPE":"U","NORAD_CAT_ID":27679,"ELEMENT_SET_NO":999,"REV_AT_EPOCH":25203,"BSTAR":0.00070363427,"MEAN_MOTION_DOT":3.191e-5,"MEAN_MOTION_DDOT":0}]
